{
 "generated_at": "2026-07-11T07:11:30Z",
 "sources": [
  {
   "name": "CelesTrak",
   "url": "https://celestrak.org/NORAD/elements/",
   "license": "frei verfügbar; Attribution. Ursprünglich USSPACECOM/Space-Track."
  },
  {
   "name": "GCAT (J. McDowell, planet4589.org)",
   "url": "https://planet4589.org/space/gcat/",
   "license": "CC-BY 4.0"
  }
 ],
 "satellites": [
  {
   "norad": 42987,
   "name": "SKYSAT-C11",
   "intl": "2017-068A",
   "group": "resource",
   "gcat": {
    "class": "B",
    "category": "IMG",
    "owner": "PLABST",
    "state": "US"
   },
   "omm": {
    "OBJECT_NAME": "SKYSAT-C11",
    "OBJECT_ID": "2017-068A",
    "EPOCH": "2026-07-09T15:48:01.789056",
    "MEAN_MOTION": 15.59105762,
    "ECCENTRICITY": 0.00008121,
    "INCLINATION": 97.4368,
    "RA_OF_ASC_NODE": 340.4901,
    "ARG_OF_PERICENTER": 166.0165,
    "MEAN_ANOMALY": 194.1114,
    "EPHEMERIS_TYPE": 0,
    "CLASSIFICATION_TYPE": "U",
    "NORAD_CAT_ID": 42987,
    "ELEMENT_SET_NO": 999,
    "REV_AT_EPOCH": 48674,
    "BSTAR": 0.00027644744,
    "MEAN_MOTION_DOT": 0.00021499,
    "MEAN_MOTION_DDOT": 0
   }
  },
  {
   "norad": 41773,
   "name": "SKYSAT-C2",
   "intl": "2016-058D",
   "group": "resource",
   "gcat": {
    "class": "B",
    "category": "IMG",
    "owner": "TBELLA",
    "state": "US"
   },
   "omm": {
    "OBJECT_NAME": "SKYSAT-C2",
    "OBJECT_ID": "2016-058D",
    "EPOCH": "2026-07-10T11:40:06.062592",
    "MEAN_MOTION": 15.4260758,
    "ECCENTRICITY": 0.00020347,
    "INCLINATION": 97.0164,
    "RA_OF_ASC_NODE": 212.7103,
    "ARG_OF_PERICENTER": 13.3625,
    "MEAN_ANOMALY": 346.7677,
    "EPHEMERIS_TYPE": 0,
    "CLASSIFICATION_TYPE": "U",
    "NORAD_CAT_ID": 41773,
    "ELEMENT_SET_NO": 999,
    "REV_AT_EPOCH": 54864,
    "BSTAR": 0.0002024409,
    "MEAN_MOTION_DOT": 0.00008725,
    "MEAN_MOTION_DDOT": 0
   }
  },
  {
   "norad": 41774,
   "name": "SKYSAT-C3",
   "intl": "2016-058E",
   "group": "resource",
   "gcat": {
    "class": "B",
    "category": "IMG",
    "owner": "TBELLA",
    "state": "US"
   },
   "omm": {
    "OBJECT_NAME": "SKYSAT-C3",
    "OBJECT_ID": "2016-058E",
    "EPOCH": "2026-07-10T00:24:41.926752",
    "MEAN_MOTION": 15.53540793,
    "ECCENTRICITY": 0.00021894,
    "INCLINATION": 96.9003,
    "RA_OF_ASC_NODE": 220.9981,
    "ARG_OF_PERICENTER": 133.5121,
    "MEAN_ANOMALY": 226.6316,
    "EPHEMERIS_TYPE": 0,
    "CLASSIFICATION_TYPE": "U",
    "NORAD_CAT_ID": 41774,
    "ELEMENT_SET_NO": 999,
    "REV_AT_EPOCH": 54965,
    "BSTAR": 0.000284373,
    "MEAN_MOTION_DOT": 0.00018005,
    "MEAN_MOTION_DDOT": 0
   }
  },
  {
   "norad": 41771,
   "name": "SKYSAT-C4",
   "intl": "2016-058B",
   "group": "resource",
   "gcat": {
    "class": "B",
    "category": "IMG",
    "owner": "TBELLA",
    "state": "US"
   },
   "omm": {
    "OBJECT_NAME": "SKYSAT-C4",
    "OBJECT_ID": "2016-058B",
    "EPOCH": "2026-07-10T20:20:10.698720",
    "MEAN_MOTION": 15.49338612,
    "ECCENTRICITY": 0.0003311,
    "INCLINATION": 96.917,
    "RA_OF_ASC_NODE": 212.6388,
    "ARG_OF_PERICENTER": 124.5912,
    "MEAN_ANOMALY": 235.5653,
    "EPHEMERIS_TYPE": 0,
    "CLASSIFICATION_TYPE": "U",
    "NORAD_CAT_ID": 41771,
    "ELEMENT_SET_NO": 999,
    "REV_AT_EPOCH": 54913,
    "BSTAR": 0.00020937,
    "MEAN_MOTION_DOT": 0.00011381,
    "MEAN_MOTION_DDOT": 0
   }
  },
  {
   "norad": 41772,
   "name": "SKYSAT-C5",
   "intl": "2016-058C",
   "group": "resource",
   "gcat": {
    "class": "B",
    "category": "IMG",
    "owner": "TBELLA",
    "state": "US"
   },
   "omm": {
    "OBJECT_NAME": "SKYSAT-C5",
    "OBJECT_ID": "2016-058C",
    "EPOCH": "2026-07-09T22:14:08.690208",
    "MEAN_MOTION": 15.3395516,
    "ECCENTRICITY": 0.00020348,
    "INCLINATION": 97.0465,
    "RA_OF_ASC_NODE": 230.5527,
    "ARG_OF_PERICENTER": 135.3938,
    "MEAN_ANOMALY": 224.747,
    "EPHEMERIS_TYPE": 0,
    "CLASSIFICATION_TYPE": "U",
    "NORAD_CAT_ID": 41772,
    "ELEMENT_SET_NO": 999,
    "REV_AT_EPOCH": 54723,
    "BSTAR": 0.00022859962,
    "MEAN_MOTION_DOT": 0.00007436,
    "MEAN_MOTION_DDOT": 0
   }
  },
  {
   "norad": 42992,
   "name": "SKYSAT-C6",
   "intl": "2017-068F",
   "group": "resource",
   "gcat": {
    "class": "B",
    "category": "IMG",
    "owner": "PLABST",
    "state": "US"
   },
   "omm": {
    "OBJECT_NAME": "SKYSAT-C6",
    "OBJECT_ID": "2017-068F",
    "EPOCH": "2026-07-09T15:34:22.752480",
    "MEAN_MOTION": 15.34106572,
    "ECCENTRICITY": 0.00051627,
    "INCLINATION": 97.4588,
    "RA_OF_ASC_NODE": 328.4799,
    "ARG_OF_PERICENTER": 103.1836,
    "MEAN_ANOMALY": 256.9983,
    "EPHEMERIS_TYPE": 0,
    "CLASSIFICATION_TYPE": "U",
    "NORAD_CAT_ID": 42992,
    "ELEMENT_SET_NO": 999,
    "REV_AT_EPOCH": 48576,
    "BSTAR": 0.00019987016,
    "MEAN_MOTION_DOT": 0.00006518,
    "MEAN_MOTION_DDOT": 0
   }
  },
  {
   "norad": 42991,
   "name": "SKYSAT-C7",
   "intl": "2017-068E",
   "group": "resource",
   "gcat": {
    "class": "B",
    "category": "IMG",
    "owner": "PLABST",
    "state": "US"
   },
   "omm": {
    "OBJECT_NAME": "SKYSAT-C7",
    "OBJECT_ID": "2017-068E",
    "EPOCH": "2026-07-10T04:06:59.264064",
    "MEAN_MOTION": 15.37378749,
    "ECCENTRICITY": 0.00061426,
    "INCLINATION": 97.4551,
    "RA_OF_ASC_NODE": 329.1314,
    "ARG_OF_PERICENTER": 37.9429,
    "MEAN_ANOMALY": 322.2247,
    "EPHEMERIS_TYPE": 0,
    "CLASSIFICATION_TYPE": "U",
    "NORAD_CAT_ID": 42991,
    "ELEMENT_SET_NO": 999,
    "REV_AT_EPOCH": 48590,
    "BSTAR": 0.00020467599,
    "MEAN_MOTION_DOT": 0.00007419,
    "MEAN_MOTION_DDOT": 0
   }
  },
  {
   "norad": 42990,
   "name": "SKYSAT-C8",
   "intl": "2017-068D",
   "group": "resource",
   "gcat": {
    "class": "B",
    "category": "IMG",
    "owner": "PLABST",
    "state": "US"
   },
   "omm": {
    "OBJECT_NAME": "SKYSAT-C8",
    "OBJECT_ID": "2017-068D",
    "EPOCH": "2026-07-09T15:45:21.893760",
    "MEAN_MOTION": 15.37418486,
    "ECCENTRICITY": 0.00012242,
    "INCLINATION": 97.4543,
    "RA_OF_ASC_NODE": 327.6181,
    "ARG_OF_PERICENTER": 99.9689,
    "MEAN_ANOMALY": 260.1694,
    "EPHEMERIS_TYPE": 0,
    "CLASSIFICATION_TYPE": "U",
    "NORAD_CAT_ID": 42990,
    "ELEMENT_SET_NO": 999,
    "REV_AT_EPOCH": 48576,
    "BSTAR": 0.00020711554,
    "MEAN_MOTION_DOT": 0.00007514,
    "MEAN_MOTION_DDOT": 0
   }
  },
  {
   "norad": 42989,
   "name": "SKYSAT-C9",
   "intl": "2017-068C",
   "group": "resource",
   "gcat": {
    "class": "B",
    "category": "IMG",
    "owner": "PLABST",
    "state": "US"
   },
   "omm": {
    "OBJECT_NAME": "SKYSAT-C9",
    "OBJECT_ID": "2017-068C",
    "EPOCH": "2026-07-09T15:06:23.132160",
    "MEAN_MOTION": 15.42121068,
    "ECCENTRICITY": 0.00090649,
    "INCLINATION": 97.4443,
    "RA_OF_ASC_NODE": 328.8561,
    "ARG_OF_PERICENTER": 62.2816,
    "MEAN_ANOMALY": 297.935,
    "EPHEMERIS_TYPE": 0,
    "CLASSIFICATION_TYPE": "U",
    "NORAD_CAT_ID": 42989,
    "ELEMENT_SET_NO": 999,
    "REV_AT_EPOCH": 48621,
    "BSTAR": 0.0002150963,
    "MEAN_MOTION_DOT": 0.0000913,
    "MEAN_MOTION_DDOT": 0
   }
  },
  {
   "norad": 40376,
   "name": "SMAP",
   "intl": "2015-003A",
   "group": "resource",
   "gcat": {
    "class": "C",
    "category": "EOSCI",
    "owner": "JPL",
    "state": "US"
   },
   "omm": {
    "OBJECT_NAME": "SMAP",
    "OBJECT_ID": "2015-003A",
    "EPOCH": "2026-07-10T20:59:33.751680",
    "MEAN_MOTION": 14.63386837,
    "ECCENTRICITY": 0.0001565,
    "INCLINATION": 98.1281,
    "RA_OF_ASC_NODE": 198.6342,
    "ARG_OF_PERICENTER": 95.8496,
    "MEAN_ANOMALY": 264.2885,
    "EPHEMERIS_TYPE": 0,
    "CLASSIFICATION_TYPE": "U",
    "NORAD_CAT_ID": 40376,
    "ELEMENT_SET_NO": 999,
    "REV_AT_EPOCH": 61108,
    "BSTAR": 0.000052428,
    "MEAN_MOTION_DOT": 0.00000224,
    "MEAN_MOTION_DDOT": 0
   }
  }
 ]
}
